ONEWEB-0159             
1 48062U 21025W   24147.85008094  .00006355  00000+0  17363-1 0  9991
2 48062  87.8910 109.7645 0001429  86.2701 273.8591 13.13437202154974
ONEWEB-0164             
1 48063U 21025X   24147.90880477  .00014201  00000+0  38834-1 0  9996
2 48063  87.8910 109.7623 0002039 116.9201 243.2137 13.13398320154979
ONEWEB-0167             
1 48064U 21025Y   24147.40491848  .00000089  00000+0  20977-3 0  9992
2 48064  87.8911 109.8749 0002110  78.6038 281.5329 13.13471046154888
ONEWEB-0166             
1 48065U 21025Z   24147.88345720 -.00007056  00000+0 -19388-1 0  9997
2 48065  87.8921 109.7651 0002207  70.4068 289.7299 13.13412484155025
ONEWEB-0151             
1 48066U 21025AA  24147.88497530  .00000432  00000+0  11477-2 0  9996
2 48066  87.8910 109.7765 0002210  86.0797 274.0584 13.13472644154977
ONEWEB-0170             
1 48067U 21025AB  24147.43585252 -.00002517  00000+0 -69272-2 0  9991
2 48067  87.8912 109.8679 0002301  98.7714 261.3676 13.13481298154869
ONEWEB-0168             
1 48068U 21025AC  24147.87863377 -.00003412  00000+0 -93785-2 0  9998
2 48068  87.8916 109.7490 0001733  79.8159 280.3166 13.13487364154938
ONEWEB-0173             
1 48069U 21025AD  24147.41364094  .00000290  00000+0  75949-3 0  9993
2 48069  87.8914 109.8517 0002446  76.5312 283.6089 13.13469278155110
